start=new Date('2021-11-24T00:00:00.000Z').valueOf();
sats=[{"EPOCH":"2021-11-23T10:02:53.697984","PERIOD":"95.592","ELEMENT_SET_NO":"999","COUNTRY_CODE":"US","SITE":"AFETR","TIME_SYSTEM":"UTC","TLE_LINE2":"2 46535  53.0558  12.3801 0001597  89.9951 270.1221 15.06402237 63272","MEAN_MOTION_DOT":"-0.00004537","MEAN_ELEMENT_THEORY":"SGP4","OBJECT_TYPE":"PAYLOAD","GP_ID":"190338335","DECAY_DATE":null,"INCLINATION":"53.0558","RCS_SIZE":"LARGE","LAUNCH_DATE":"2020-10-06","RA_OF_ASC_NODE":"12.3801","OBJECT_NAME":"STARLINK-1663","CLASSIFICATION_TYPE":"U","MEAN_MOTION":"15.06402237","PERIAPSIS":"546.101","SEMIMAJOR_AXIS":"6925.342","NORAD_CAT_ID":"46535","FILE":"3222418","ECCENTRICITY":"0.00015970","MEAN_ANOMALY":"270.1221","REF_FRAME":"TEME","ARG_OF_PERICENTER":"89.9951","TLE_LINE1":"1 46535U 20070D   21327.41867706 -.00004537  00000-0 -28587-3 0  9990","OBJECT_ID":"2020-070D","EPHEMERIS_TYPE":"0","REV_AT_EPOCH":"6327","CENTER_NAME":"EARTH","MEAN_MOTION_DDOT":"0.0000000000000","BSTAR":"-0.00028587000000","APOAPSIS":"548.313"},{"EPOCH":"2021-11-23T07:43:34.612896","PERIOD":"91.419","ELEMENT_SET_NO":"999","SITE":"AFETR","COUNTRY_CODE":"US","TIME_SYSTEM":"UTC","MEAN_MOTION_DOT":"0.00047346","TLE_LINE2":"2 46536  53.0548 336.0135 0015829 173.1737 186.9501 15.75162100 63788","MEAN_ELEMENT_THEORY":"SGP4","GP_ID":"190337085","OBJECT_TYPE":"PAYLOAD","DECAY_DATE":null,"INCLINATION":"53.0548","RCS_SIZE":"LARGE","LAUNCH_DATE":"2020-10-06","OBJECT_NAME":"STARLINK-1668","RA_OF_ASC_NODE":"336.0135","MEAN_MOTION":"15.75162100","CLASSIFICATION_TYPE":"U","SEMIMAJOR_AXIS":"6722.307","PERIAPSIS":"333.531","ECCENTRICITY":"0.00158290","FILE":"3222418","NORAD_CAT_ID":"46536","MEAN_ANOMALY":"186.9501","REF_FRAME":"TEME","ARG_OF_PERICENTER":"173.1737","OBJECT_ID":"2020-070E","TLE_LINE1":"1 46536U 20070E   21327.32192839  .00047346  00000-0  31002-3 0  9998","EPHEMERIS_TYPE":"0","REV_AT_EPOCH":"6378","CENTER_NAME":"EARTH","APOAPSIS":"354.813","MEAN_MOTION_DDOT":"0.0000000000000","BSTAR":"0.00031002000000"},{"DECAY_DATE":null,"INCLINATION":"53.0545","RCS_SIZE":"LARGE","OBJECT_TYPE":"PAYLOAD","GP_ID":"190314496","TIME_SYSTEM":"UTC","COUNTRY_CODE":"US","SITE":"AFETR","MEAN_ELEMENT_THEORY":"SGP4","TLE_LINE2":"2 46537  53.0545  11.9691 0001386  52.6362 307.4753 15.06394695 63004","MEAN_MOTION_DOT":"-0.00000438","EPOCH":"2021-11-23T12:15:36.166464","ELEMENT_SET_NO":"999","PERIOD":"95.592","EPHEMERIS_TYPE":"0","REV_AT_EPOCH":"6300","TLE_LINE1":"1 46537U 20070F   21327.51083526 -.00000438  00000-0 -10504-4 0  9990","OBJECT_ID":"2020-070F","BSTAR":"-0.00001050400000","MEAN_MOTION_DDOT":"0.0000000000000","APOAPSIS":"548.190","CENTER_NAME":"EARTH","REF_FRAME":"TEME","MEAN_ANOMALY":"307.4753","ARG_OF_PERICENTER":"52.6362","PERIAPSIS":"546.270","SEMIMAJOR_AXIS":"6925.365","FILE":"3222383","NORAD_CAT_ID":"46537","ECCENTRICITY":"0.00013860","LAUNCH_DATE":"2020-10-06","CLASSIFICATION_TYPE":"U","MEAN_MOTION":"15.06394695","RA_OF_ASC_NODE":"11.9691","OBJECT_NAME":"STARLINK-1672"},{"TLE_LINE2":"2 46538  53.0551  12.3608 0001336  65.7244 294.3885 15.06389953 63274","MEAN_MOTION_DOT":"-0.00000368","MEAN_ELEMENT_THEORY":"SGP4","SITE":"AFETR","COUNTRY_CODE":"US","TIME_SYSTEM":"UTC","PERIOD":"95.593","ELEMENT_SET_NO":"999","EPOCH":"2021-11-23T10:08:12.961536","RCS_SIZE":"LARGE","DECAY_DATE":null,"INCLINATION":"53.0551","GP_ID":"190338087","OBJECT_TYPE":"PAYLOAD","ECCENTRICITY":"0.00013360","FILE":"3222418","NORAD_CAT_ID":"46538","SEMIMAJOR_AXIS":"6925.379","PERIAPSIS":"546.319","OBJECT_NAME":"STARLINK-1678","RA_OF_ASC_NODE":"12.3608","MEAN_MOTION":"15.06389953","CLASSIFICATION_TYPE":"U","LAUNCH_DATE":"2020-10-06","CENTER_NAME":"EARTH","APOAPSIS":"548.170","MEAN_MOTION_DDOT":"0.0000000000000","BSTAR":"-0.00000581190000","OBJECT_ID":"2020-070G","TLE_LINE1":"1 46538U 20070G   21327.42237224 -.00000368  00000-0 -58119-5 0  9994","EPHEMERIS_TYPE":"0","REV_AT_EPOCH":"6327","ARG_OF_PERICENTER":"65.7244","MEAN_ANOMALY":"294.3885","REF_FRAME":"TEME"},{"MEAN_ANOMALY":"270.3169","REF_FRAME":"TEME","ARG_OF_PERICENTER":"89.8112","TLE_LINE1":"1 46539U 20070H   21327.60771511  .00072533  00000-0  45777-2 0  9991","OBJECT_ID":"2020-070H","REV_AT_EPOCH":"6331","EPHEMERIS_TYPE":"0","CENTER_NAME":"EARTH","MEAN_MOTION_DDOT":"0.0000000000000","BSTAR":"0.00457770000000","APOAPSIS":"542.721","LAUNCH_DATE":"2020-10-06","OBJECT_NAME":"STARLINK-1684","RA_OF_ASC_NODE":"11.4546","CLASSIFICATION_TYPE":"U","MEAN_MOTION":"15.08443228","PERIAPSIS":"539.195","SEMIMAJOR_AXIS":"6919.093","FILE":"3222563","NORAD_CAT_ID":"46539","ECCENTRICITY":"0.00025480","OBJECT_TYPE":"PAYLOAD","GP_ID":"190362626","DECAY_DATE":null,"INCLINATION":"53.0538","RCS_SIZE":"LARGE","EPOCH":"2021-11-23T14:35:06.585504","PERIOD":"95.463","ELEMENT_SET_NO":"999","COUNTRY_CODE":"US","SITE":"AFETR","TIME_SYSTEM":"UTC","TLE_LINE2":"2 46539  53.0538  11.4546 0002548  89.8112 270.3169 15.08443228 63310","MEAN_MOTION_DOT":"0.00072533","MEAN_ELEMENT_THEORY":"SGP4"},{"LAUNCH_DATE":"2020-10-06","MEAN_MOTION":"15.06399562","CLASSIFICATION_TYPE":"U","RA_OF_ASC_NODE":"352.1402","OBJECT_NAME":"STARLINK-1687","SEMIMAJOR_AXIS":"6925.350","PERIAPSIS":"546.198","ECCENTRICITY":"0.00014690","FILE":"3222418","NORAD_CAT_ID":"46541","REF_FRAME":"TEME","MEAN_ANOMALY":"303.1925","ARG_OF_PERICENTER":"56.9205","REV_AT_EPOCH":"6356","EPHEMERIS_TYPE":"0","OBJECT_ID":"2020-070K","TLE_LINE1":"1 46541U 20070K   21327.46843700 -.00000258  00000-0  15883-5 0  9992","APOAPSIS":"548.232","MEAN_MOTION_DDOT":"0.0000000000000","BSTAR":"0.00000158830000","CENTER_NAME":"EARTH","EPOCH":"2021-11-23T11:14:32.956800","ELEMENT_SET_NO":"999","PERIOD":"95.592","TIME_SYSTEM":"UTC","SITE":"AFETR","COUNTRY_CODE":"US","MEAN_ELEMENT_THEORY":"SGP4","TLE_LINE2":"2 46541  53.0553 352.1402 0001469  56.9205 303.1925 15.06399562 63566","MEAN_MOTION_DOT":"-0.00000258","GP_ID":"190336586","OBJECT_TYPE":"PAYLOAD","RCS_SIZE":"LARGE","DECAY_DATE":null,"INCLINATION":"53.0553"},{"MEAN_ELEMENT_THEORY":"SGP4","TLE_LINE2":"2 46542  53.0558  11.8489 0001561  66.2670 293.8482 15.06399244 63312","MEAN_MOTION_DOT":"0.00000382","TIME_SYSTEM":"UTC","SITE":"AFETR","COUNTRY_CODE":"US","ELEMENT_SET_NO":"999","PERIOD":"95.592","EPOCH":"2021-11-23T12:52:45.282144","DECAY_DATE":null,"INCLINATION":"53.0558","RCS_SIZE":"LARGE","GP_ID":"190314956","OBJECT_TYPE":"PAYLOAD","ECCENTRICITY":"0.00015610","FILE":"3222388","NORAD_CAT_ID":"46542","SEMIMAJOR_AXIS":"6925.351","PERIAPSIS":"546.135","MEAN_MOTION":"15.06399244","CLASSIFICATION_TYPE":"U","OBJECT_NAME":"STARLINK-1692","RA_OF_ASC_NODE":"11.8489","LAUNCH_DATE":"2020-10-06","APOAPSIS":"548.297","MEAN_MOTION_DDOT":"0.0000000000000","BSTAR":"0.00004453300000","CENTER_NAME":"EARTH","EPHEMERIS_TYPE":"0","REV_AT_EPOCH":"6331","OBJECT_ID":"2020-070L","TLE_LINE1":"1 46542U 20070L   21327.53663521  .00000382  00000-0  44533-4 0  9992","ARG_OF_PERICENTER":"66.2670","REF_FRAME":"TEME","MEAN_ANOMALY":"293.8482"},{"TLE_LINE1":"1 46543U 20070M   21327.52188659  .00001866  00000-0  14416-3 0  9990","OBJECT_ID":"2020-070M","REV_AT_EPOCH":"6329","EPHEMERIS_TYPE":"0","CENTER_NAME":"EARTH","MEAN_MOTION_DDOT":"0.0000000000000","BSTAR":"0.00014416000000","APOAPSIS":"548.209","MEAN_ANOMALY":"292.0295","REF_FRAME":"TEME","ARG_OF_PERICENTER":"68.0847","PERIAPSIS":"546.215","SEMIMAJOR_AXIS":"6925.347","NORAD_CAT_ID":"46543","FILE":"3222418","ECCENTRICITY":"0.00014390","LAUNCH_DATE":"2020-10-06","RA_OF_ASC_NODE":"11.9044","OBJECT_NAME":"STARLINK-1693","CLASSIFICATION_TYPE":"U","MEAN_MOTION":"15.06400525","RCS_SIZE":"LARGE","DECAY_DATE":null,"INCLINATION":"53.0556","OBJECT_TYPE":"PAYLOAD","GP_ID":"190337588","COUNTRY_CODE":"US","SITE":"AFETR","TIME_SYSTEM":"UTC","MEAN_MOTION_DOT":"0.00001866","TLE_LINE2":"2 46543  53.0556  11.9044 0001439  68.0847 292.0295 15.06400525 63294","MEAN_ELEMENT_THEORY":"SGP4","EPOCH":"2021-11-23T12:31:31.001376","PERIOD":"95.592","ELEMENT_SET_NO":"999"},{"OBJECT_ID":"2020-070N","TLE_LINE1":"1 46544U 20070N   21327.58408476  .00000306  00000-0  39462-4 0  9996","EPHEMERIS_TYPE":"0","REV_AT_EPOCH":"6351","CENTER_NAME":"EARTH","APOAPSIS":"548.135","BSTAR":"0.00003946200000","MEAN_MOTION_DDOT":"0.0000000000000","MEAN_ANOMALY":"289.1654","REF_FRAME":"TEME","ARG_OF_PERICENTER":"70.9480","SEMIMAJOR_AXIS":"6925.342","PERIAPSIS":"546.279","ECCENTRICITY":"0.00013400","NORAD_CAT_ID":"46544","FILE":"3222563","LAUNCH_DATE":"2020-10-06","RA_OF_ASC_NODE":"356.6282","OBJECT_NAME":"STARLINK-1694","MEAN_MOTION":"15.06402136","CLASSIFICATION_TYPE":"U","DECAY_DATE":null,"RCS_SIZE":"LARGE","INCLINATION":"53.0564","GP_ID":"190363127","OBJECT_TYPE":"PAYLOAD","SITE":"AFETR","COUNTRY_CODE":"US","TIME_SYSTEM":"UTC","TLE_LINE2":"2 46544  53.0564 356.6282 0001340  70.9480 289.1654 15.06402136 63514","MEAN_MOTION_DOT":"0.00000306","MEAN_ELEMENT_THEORY":"SGP4","EPOCH":"2021-11-23T14:01:04.923264","PERIOD":"95.592","ELEMENT_SET_NO":"999"},{"MEAN_ANOMALY":"296.0107","REF_FRAME":"TEME","ARG_OF_PERICENTER":"64.1036","TLE_LINE1":"1 46545U 20070P   21327.62509559  .00000418  00000-0  46978-4 0  9990","OBJECT_ID":"2020-070P","EPHEMERIS_TYPE":"0","REV_AT_EPOCH":"6330","CENTER_NAME":"EARTH","BSTAR":"0.00004697800000","MEAN_MOTION_DDOT":"0.0000000000000","APOAPSIS":"548.278","LAUNCH_DATE":"2020-10-06","RA_OF_ASC_NODE":"11.4543","OBJECT_NAME":"STARLINK-1696","CLASSIFICATION_TYPE":"U","MEAN_MOTION":"15.06391052","PERIAPSIS":"546.204","SEMIMAJOR_AXIS":"6925.376","NORAD_CAT_ID":"46545","FILE":"3222563","ECCENTRICITY":"0.00014970","OBJECT_TYPE":"PAYLOAD","GP_ID":"190363377","DECAY_DATE":null,"RCS_SIZE":"LARGE","INCLINATION":"53.0564","EPOCH":"2021-11-23T15:00:08.258976","PERIOD":"95.593","ELEMENT_SET_NO":"999","COUNTRY_CODE":"US","SITE":"AFETR","TIME_SYSTEM":"UTC","TLE_LINE2":"2 46545  53.0564  11.4543 0001497  64.1036 296.0107 15.06391052 63307","MEAN_MOTION_DOT":"0.00000418","MEAN_ELEMENT_THEORY":"SGP4"}];
